AMC-15                  
1 28446U 04041A   25064.38725310 -.00000095  00000+0  00000+0 0  9992
2 28446   0.0506 303.1882 0002261  40.1357 214.3938  1.00272023 74618
NSS-10                  
1 28526U 05003A   25064.45814605 -.00000259  00000+0  00000+0 0  9996
2 28526   5.2737  76.1019 0003035 268.7003 306.1107  1.00270555 48454
XTAR-EUR                
1 28542U 05005A   25063.69768804  .00000145  00000+0  00000+0 0  9993
2 28542   3.1217  82.5608 0005142 241.5361 118.7684  1.00269332 73472
XM-3 (RHYTHM)           
1 28626U 05008A   25064.37058826 -.00000206  00000+0  00000+0 0  9990
2 28626   0.0703 261.3461 0001036 122.1521 186.9049  1.00272449 37920
INMARSAT 4-F1           
1 28628U 05009A   25064.56135806  .00000026  00000+0  00000+0 0  9997
2 28628   4.5700  42.0214 0002269 319.6874 182.0074  1.00272388 72972
DIRECTV 8               
1 28659U 05019A   25064.45114197 -.00000006  00000+0  00000+0 0  9999
2 28659   0.0176 125.8547 0003126 222.9389 217.9913  1.00272473 72372
GALAXY 28 (G-28)        
1 28702U 05022A   25064.35947816 -.00000192  00000+0  00000+0 0  9999
2 28702   2.0875  84.8040 0005474 215.8750 263.0606  1.00272053 47289
THAICOM 4               
1 28786U 05028A   25064.52544933 -.00000370  00000+0  00000+0 0  9997
2 28786   0.0156 123.7846 0001965 216.6636 131.6864  1.00272071 47557
ANIK F1R                
1 28868U 05036A   25064.44558388 -.00000081  00000+0  00000+0 0  9996
2 28868   3.1074  82.4334 0002659 292.3957 201.6862  1.00271342 41754
SYRACUSE 3A             
1 28885U 05041B   25063.81780859  .00000124  00000+0  00000+0 0  9998
2 28885   3.4429  81.6977 0003039 268.5236 128.7649  1.00271646 71046
INMARSAT 4-F2           
1 28899U 05044A   25064.27197534 -.00000267  00000+0  00000+0 0  9998
2 28899   4.4936  43.2970 0002264 306.7400  54.6176  1.00272302 70815
METEOSAT-9 (MSG-2)      
1 28912U 05049B   25064.13378212  .00000119  00000+0  00000+0 0  9993
2 28912   8.2892  58.5868 0000587 338.4569 219.9436  1.00275973  2304
EUTELSAT 174A           
1 28924U 05052A   25064.49672435  .00000002  00000+0  00000+0 0  9994
2 28924   3.0268  82.3424 0006439 265.1616 168.7570  1.00272760 47637
ECHOSTAR 10             
1 28935U 06003A   25064.44558388 -.00000062  00000+0  00000+0 0  9995
2 28935   0.0522 293.2153 0001445  51.8561 228.5411  1.00271222 69761
SPAINSAT                
1 28945U 06007A   25063.63150296 -.00000221  00000+0  00000+0 0  9993
2 28945   0.0480 248.6832 0003310  71.4063  39.8633  1.00272200 69510
EUTELSAT HOTBIRD 13E    
1 28946U 06007B   25064.31989100 -.00000133  00000+0  00000+0 0  9996
2 28946   0.8850  92.2677 0005155 298.1432 232.0156  1.00270018 69621
JCSAT-5A                
1 29045U 06010A   25064.50461367 -.00000335  00000+0  00000+0 0  9996
2 29045   0.0372 266.5700 0001869  27.6587 182.9374  1.00271001 69077
ASTRA 1KR               
1 29055U 06012A   25064.30322600  .00000113  00000+0  00000+0 0  9996
2 29055   0.0743 285.7707 0003204 357.2820   8.5459  1.00272959 41011
EWS-G1 (GOES 13)        
1 29155U 06018A   25064.04558361 -.00000068  00000+0  00000+0 0  9999
2 29155   3.3085  82.1500 0065978 261.4731 219.9565  0.98830944 38618
GALAXY 16 (G-16)        
1 29236U 06023A   25064.35947816 -.00000133  00000+0  00000+0 0  9999
2 29236   0.0441 242.3609 0002741 115.2049 196.1639  1.00271128 68275
EUTELSAT HOTBIRD 13B    
1 29270U 06032A   25064.04003152  .00000149  00000+0  00000+0 0  9995
2 29270   0.4463  86.8044 0004302 268.0339 215.6769  1.00261880 42603
JCSAT-3A                
1 29272U 06033A   25064.50461367 -.00000352  00000+0  00000+0 0  9992
2 29272   0.0381 276.3914 0002052  78.6048 118.1170  1.00269376 43044
SYRACUSE 3B             
1 29273U 06033B   25064.30878093  .00000015  00000+0  00000+0 0  9994
2 29273   1.6947  86.1121 0005117 255.1224 296.5501  1.00272281 67976
KOREASAT 5 (MUGUNGWHA 5)
1 29349U 06034A   25064.52544933 -.00000365  00000+0  00000+0 0  9995
2 29349   0.5689  90.1013 0001898 312.4942  63.1118  1.00270574 36625
DIRECTV 9S              
1 29494U 06043A   25064.43308620 -.00000120  00000+0  00000+0 0  9996
2 29494   1.2074  86.6813 0003115 261.1655 230.2543  1.00270977 46688
OPTUS D1                
1 29495U 06043B   25064.50183639 -.00000191  00000+0  00000+0 0  9994
2 29495   1.8223  85.5574 0003652 259.2629 151.2994  1.00272792 67422
BADR-4                  
1 29526U 06051A   25064.24697477  .00000138  00000+0  00000+0 0  9999
2 29526   0.7911  85.7026 0007696 256.7580 295.8902  1.00270921 46561
WILDBLUE-1              
1 29643U 06054A   25064.38812074 -.00000056  00000+0  00000+0 0  9999
2 29643   1.5895  86.6301 0002161 246.0868 219.1744  1.00272906 49099
SKYNET 5A               
1 30794U 07007B   25064.57957157 -.00000279  00000+0  00000+0 0  9997
2 30794   4.1030  79.4167 0003842 274.8336 113.1409  1.00272400 65957
ANIK F3                 
1 31102U 07009A   25064.40530721 -.00000007  00000+0  00000+0 0  9998
2 31102   0.0247 248.7352 0001671  86.7590 215.0750  1.00269652 41863
ASTRA 1L                
1 31306U 07016A   25064.30322600  .00000114  00000+0  00000+0 0  9994
2 31306   0.1167  66.6960 0004318 264.1358 320.9634  1.00271410 40285
GALAXY 17 (G-17)        
1 31307U 07016B   25064.37058826 -.00000212  00000+0  00000+0 0  9998
2 31307   1.7813  85.9428 0005358 203.9762 281.8246  1.00270640 65105
ZHONGXING-6B            
1 31800U 07031A   25064.52544933 -.00000369  00000+0  00000+0 0  9992
2 31800   1.1858  87.4612 0004481 250.3149 130.1548  1.00267053 64732
DIRECTV 10              
1 31862U 07032A   25063.93795072 -.00000108  00000+0  00000+0 0  9998
2 31862   0.0126 283.3645 0000487  77.4791  36.9303  1.00272188 40889
BSAT-3A                 
1 32019U 07036B   25064.32544591 -.00000245  00000+0  00000+0 0  9991
2 32019   0.4455 109.3550 0002324 138.0534  10.6090  0.99142972 45821
OPTUS D2                
1 32252U 07044A   25064.50169750 -.00000117  00000+0  00000+0 0  9997
2 32252   0.8589  88.1008 0006136 237.4481 178.6526  1.00270797 63878
INTELSAT 11 (IS-11)     
1 32253U 07044B   25064.28031091 -.00000275  00000+0  00000+0 0  9994
2 32253   2.3409  84.5035 0003208 262.8662 233.7859  1.00270342 63796
WGS F1 (USA 195)        
1 32258U 07046A   25064.33100361 -.00000274  00000+0  00000+0 0  9993
2 32258   0.0844  90.1842 0000349 246.2566 263.5167  1.00268849 47637
SKYNET 5B               
1 32294U 07056B   25064.04558361  .00000134  00000+0  00000+0 0  9993
2 32294   4.0543  79.0963 0003992 268.6597 216.7363  1.00271543 63491
ASTRA 4A                
1 32299U 07057A   25064.30878093  .00000025  00000+0  00000+0 0  9994
2 32299   0.0502 298.8175 0002965  30.3208 310.1041  1.00270278 46942
HORIZONS-2              
1 32388U 07063B   25064.29142098 -.00000259  00000+0  00000+0 0  9997
2 32388   1.3885  86.5155 0002133 265.6416 202.2142  1.00269830 63113
THURAYA-3               
1 32404U 08001A   25064.37128245 -.00000308  00000+0  00000+0 0  9991
2 32404   5.2307  34.2432 0002321 300.6133  60.6460  1.00270925 62785
THOR 5                  
1 32487U 08006A   25064.31433586 -.00000016  00000+0  00000+0 0  9994
2 32487   0.0467 258.2452 0002837  90.8769 286.5588  1.00271891 62616
AMC-14                  
1 32708U 08011A   25063.10114435  .00000067  00000+0  00000+0 0  9996
2 32708  23.4272  26.1726 0044415 355.4371 194.3435  1.00273003 63455
DIRECTV 11              
1 32729U 08013A   25064.18933573 -.00000132  00000+0  00000+0 0  9996
2 32729   0.0361 354.3092 0000226  14.5092 123.3139  1.00272012 40890
ICO G1                  
1 32763U 08016A   25064.42753125 -.00000178  00000+0  00000+0 0  9997
2 32763   5.3125  36.5457 0002503 303.5513 244.3545  1.00270847 61844
VINASAT-1               
1 32767U 08018A   25064.49211370 -.00000336  00000+0  00000+0 0  9997
2 32767   0.0516 291.1407 0002021  83.8765  97.5336  1.00269794 61890
STAR ONE C2             
1 32768U 08018B   25064.34211644 -.00000283  00000+0  00000+0 0  9997
2 32768   0.0521  58.9605 0002783 287.3511 235.1540  1.00272176 61953
AMOS-3                  
1 32794U 08022A   25064.38169867 -.00000042  00000+0  00000+0 0  9997
2 32794   0.0493 257.2300 0003290  55.1585 344.2551  1.00271143 77631
GALAXY 18 (G-18)        
1 32951U 08024A   25064.45114197  .00000020  00000+0  00000+0 0  9993
2 32951   0.0171 182.8527 0002873 146.4955 233.4723  1.00263713 41156
ZHONGXING-9             
1 33051U 08028A   25064.06448558 -.00000254  00000+0  00000+0 0  9997
2 33051   0.0093 156.4739 0004421 199.6533 282.3322  1.00271839 61334
SKYNET 5C               
1 33055U 08030A   25064.49627931 -.00000147  00000+0  00000+0 0  9996
2 33055   2.5828  82.5469 0005315 265.5165 336.2490  1.00270826 61258
TURKSAT 3A              
1 33056U 08030B   25064.42127876  .00000139  00000+0  00000+0 0  9993
2 33056   0.0317  90.2436 0004386 271.4593 355.3335  1.00273609 47653
INTELSAT 25 (IS-25)     
1 33153U 08034A   25064.49219934 -.00000231  00000+0  00000+0 0  9993
2 33153   1.4959  86.1722 0003099 260.4205 322.5634  1.00270957 60991
ECHOSTAR 11             
1 33207U 08035A   25064.39836321 -.00000063  00000+0  00000+0 0  9991
2 33207   0.0529 275.4297 0002726  59.9942 221.3411  1.00271585 46513
SUPERBIRD-C2            
1 33274U 08038A   25064.46850428 -.00000259  00000+0  00000+0 0  9997
2 33274   1.1486  87.3739 0001533 233.4819 155.1852  1.00271648101031
AMC-21                  
1 33275U 08038B   25064.49836358  .00000029  00000+0  00000+0 0  9991
2 33275   1.7353  86.3543 0003018 253.8613 237.7602  1.00270089 60796
INMARSAT 4-F3           
1 33278U 08039A   25064.42753125 -.00000146  00000+0  00000+0 0  9999
2 33278   3.9069  29.3066 0002735 321.9378 228.0791  1.00272509 41840
NIMIQ 4                 
1 33373U 08044A   25064.41086343 -.00000227  00000+0  00000+0 0  9991
2 33373   0.0210 236.2537 0001904 123.0069 230.0138  1.00269715 60281
